openingDate;postalCode;address;managers;name;phone;mail;status;code;Reference;contract
02/12/2016;69300  ;CALUIRE;Yohan AMAR et Mickael MENIERE;CABINET MENIERE;04 78 08 10 10;caluire@guyhoquet.com ;P;HOQUET1277;Siège;
09/12/2016;27220;SAINT ANDRE DE L'EURE;Christelle JORET;JORET IMMOBILIER;02.32.30.50.50;standre@guyhoquet.com ;Succ;HOQUET1278;Siège;1956
15/12/2016;31000;TOULOUSE CENTRE;François LEGELEUX ;France TRANSACTION;05 62 275 475;toulousecentre@guyhoquet.com;P;HOQUET1279;Siège;2224
15/12/2016;9120;VARILHES;Marie-Christine LACOSTE et Marie-France SANCHEZ ;SARL LCM;05 61 60 79 80;varilhes@guy-hoquet.com;P;HOQUET1280;Siège;2246
21/12/2016;66680;CANOHES ;Denise RENOULT ;ABDR;04 68 50 89 19;canohes@guyhoquet.com  ;P;HOQUET1281;Siège;2243
30/12/2016;75017  ;PARIS 17;Maria CHETTI ;CONSTANTIMMO;01 77 37 07 07;paris17brochant@guyhoquet.com;P;HOQUET1282;Siège;2136
10/11/2016;60800;CREPY EN VALOIS;Cédric LECOMTE et Moulley-Driss BICH;IMMO CREPY AND CO;03 44 92 00 00;crepyenvalois@guyhoquet.com;P;HOQUET1274;Siège;2142
29/11/2016;75016;PARIS 16 Auteil;Natacha ATLANI;AGENCE AUTEUIL;01 08 95 52 62;paris16auteil@guyhoquet.com;P;HOQUET1275;Siège;2069
30/11/2016;40140;SOUSTONS;Julien et Benjamin Roblès;BREMONTIER;05 58 41 03 33;soustons@guyhoquet.com ;P;HOQUET1276;Siège;2208
04/11/2016;77240;VERT SAINT DENIS;Mickael MOUL ;TRANSACTION GESTION PATRIMOINE VSD;01 64 41 80 00;vertstdenis@guyhoquet.com;P;HOQUET1273;Siège;2238
30/11/2016;40480;VIEUX BOUCAU;Julien et Benjamin Roblès;BREMONTIER;05 58 58 03 03;vieuxboucau@guyhoquet.com;Succ;HOQUET1276;Pas de code unique;2208
23/03/2015;47000;AGEN;Ludovic HERUBERT ;AGENIA IMMO;05 53 47 43 94;agen@guyhoquet.com ;P;HOQUET1206;Siège;1972
30/11/2016;97139;"GUADELOUPE LES ABYMES";Patrick GOUAIT;MENHIR IMMOBILIER;05 90 83 02 74;abymes@guyhoquet-antilles.com;P;HOQUET875;Siège;
30/11/2016;97180;"GUADELOUPE sainte anne";Patrick GOUAIT;GP IMMOBILIER;05 90 44 30 99;sainteanne@guyhoquet-antilles.com;P;HOQUET875;Siège;
30/11/2016;97229;"MARTINIQUE LES TROIS ILETS";Patrick GOUAIT;GP IMMOBILIER;05 96 38 24 27;3ilets@guyhoquet-antilles.com;P;HOQUET875;Siège;
;73100;AIX LES BAINS;Thibaud DEWIT;CITY'IMMO;04 79 35 11 46;aixlesbains@guyhoquet.com;P;HOQUET529;Siège;2107
;85190;AIZENAY;Lionel LAVOGEZ;AGENCE IMMOBILIERE D'AIZENAY;02 51 42 13 50;aizenay@guyhoquet.com;P;HOQUET499;Siège;1743
;73200;ALBERTVILLE;Stéphane BRETON;SB IMMOBILIER;04 79 39 06 60;albertville@guyhoquet.com;P;HOQUET718;Siège;1692
;94140;ALFORTVILLE;Laurent GOLDENBERG;DELPHIMMO;01 49 77 75 00;maisonsalfort@guyhoquet.com;Succ.;HOQUET62 S;Pas de code unique;2033
;37400;AMBOISE;Ambroise De NORAY;AMBROISE IMMO;02 47 230 240;amboise@guyhoquet.com;P;HOQUET546;Siège;1727
29/01/2016;;ANGLET;Laurent OTERO;;;;P;HOQUET1240;Siège;
;74000;ANNECY;Philippe GICQUEL;PRESTIGE IMMO SAVOIES;04 50 10 67 19;annecylevieux@guyhoquet.com;P;HOQUET849;Siège;1872
;74100;ANNEMASSE;Amar ZEGRIR;L'IMMOBILER DE A.Z;04.50.79.50.02;annemasse@guyhoquet.com;P;HOQUET1009;Siège;2062
;92160;ANTONY;Gilles BOBIN;AERISSIMO;01 56 45 16 16;antony@guyhoquet.com;P;HOQUET136;Siège;1912
;66700;ARGELES SUR MER;Daniel FOHANNO;IMMO FOLY;04 68 81 83 84;argeles@guyhoquet.com;P;HOQUET310;Siège;2139
;95100;ARGENTEUIL;Marc COLATOSTI ;MCJT;01 30 76 15 14;argenteuil@guyhoquet.com;P;HOQUET447;Siège;2056
;59280;ARMENTIERES;Abdon LAGUYER;ALM IMMO 14;03 20 07 10 10;armentieres@guyhoquet.com;P;HOQUET1169;Siège;1949
;62000;ARRAS;Roland DAMNON;SARL BIENS EN ARTOIS;06 38 86 84 72;arras@guyhoquet.com;P;HOQUET1146;Siège;1907
;64170;ARTIX;Laurent OTERO;IMMOPLUS;05 59 83 39 00;artix@guyhoquet.com;Succ.;HOQUET461 S;Pas de code unique;1993
;92600;ASNIERES;Thierry GONDOUIN;IMMOT'AIME ;01 47 90 75 75;asnieres@guyhoquet.com;P;HOQUET58;Siège;1762
18/10/2016;92600;ASNIERES SUR SEINE;Pascal JULIA ;ISILOC;01 47 90 31 69;contact@guyhoquetgestion.com;Succ.;HOQUET1269;Siège;
;91200;ATHIS MONS;Aurélie OUTHIER;AURIMMO 91;01 69 38 31 31;athismons@guyhoquet.com;P;HOQUET757;Siège;1746
;7200;AUBENAS;Didier LENEVELER;COULEURS SUD IMMOBILIER;04 75 89 07 07;aubenas@guyhoquet.com;P;HOQUET285;Siège;1998
;78410;AUBERGENVILLE;Jean-Baptiste HEBERT ;HAPPIMMO 78;01 30 91 19 27;aubergenville@guyhoquet.com;Succ.;HOQUET1118;Siège;1831
;93400;AUBERVILLIERS;Pierre Michel;ACTIF IMMOBILIER;06 95 93 96 71;aubervilliers@guyhoquet.com ;P;HOQUET1147;Siège;1922
;31190;AUTERIVE;Sébastien POSTIC;POST'IMMO;05 61 61 90 30;auterive@guyhoquet.com;P;HOQUET721;Siège;1839
08/08/2014;89000;AUXERRE;Lucien VERNAGALLO;ETI IMMOBILIER;03 86 52 77 56;auxerre@guyhoquet.com;Succ.;HOQUET1181;Siège;1987
;84000;AVIGNON;Etienne BEAUCOURT;PROVENCALE DE GESTION ET DE TRANSACTION;04.32.74.00.10;avignon@guyhoquet.com;P;HOQUET1032;Siège;2009
;77210;AVON;Jean-Pierre COUDERC;IMMOPAC.TEM;01 64 69 54 90;avon@guyhoquet.com;P;HOQUET1114;Siège;1664
;92220;BAGNEUX;Gilles PAPON et Michel MENDES;IMMOBILIERE DU VIEUX BOURG;01 49 65 63 30;bagneux@guyhoquet.com;P;HOQUET378;Siège;1963
;30200;BAGNOLS SUR CEZE;Jean-Luc et Véronique VEXLARD;ABB IMMO;04 66 90 50 50;bagnols@guyhoquet.com;P;HOQUET284;Siège;1792
;59270;BAILLEUL;Marie-Paule et Stéphane BEHAEGEL;BAILLEULIMMO;03 28 44 00 40;bailleul@guyhoquet.com;P;HOQUET852;Siège;1860
;14400;BAYEUX;Laurence RABIER;ESPACE CONSEIL;02 31 10 13 10;bayeux@guyhoquet.com;P;HOQUET622;Siège;2103
;95250;BEAUCHAMP;Nicolas DREO;CSN IMMOBILIER;01 34 18 41 51;beauchamp@guyhoquet.com;P;HOQUET453;Siège;2065
;33130;BEGLES;Yves POUGET;AMI;05 57 35 95 36;y.pouget@guyhoquet.com;Succ.;HOQUET209;Pas de code unique;1805
;33130;BEGLES;Yves POUGET;AMI;05 57 35 95 36;y.pouget@guyhoquet.com;Succ.;HOQUET209 S;Pas de code unique;1805
;27300;BERNAY;Laurent VOLARD-MONTHULE ;AGENCE SAINTE CROIX;02 32 46 05 06;bernay@guyhoquet.com;P;HOQUET43;Siège;2089
;25000;BESANCON;David Blond et Emma ROTA GRAZIOSI;BLOND & ROTA GRAZIOSI IMMOBILIER;03 81 48 40 07;besancon@guyhoquet.com;P;HOQUET200;Siège;1917
;62400;BETHUNE;Ingrid DEROZIER;ACV IMMOBILIERS;03 91 82 64 64;bethune@guyhoquet.com;P;HOQUET455;Siège;1920
;64140;BILLERE;Laurent OTERO;IMMOPLUS;05.59.40.30.31;billere@guyhoquet.com;P;HOQUET80;Siège;2086
;40600;BISCARROSSE;Dominique DEZELLUS;GRANDE LANDE;05 58 83 99 85;biscarrosse@guyhoquet.com;Succ.;HOQUET295 S;Pas de code unique;1706
;76340;BLANGY SUR BRELSE;Dominique LOISEAU;CDLI;02 35 94 79 62;neufchatel@guyhoquet.com;Succ.;HOQUET999 S;Pas de code unique;1787
;45760;BOIGNY SUR BIONNE;Ludovic JAVOY;FLAV'IMMO;02 38 75 00 00;boigny@guyhoquet.com;P;HOQUET833;Siège;1888
;92270;BOIS COLOMBES;Pascal  JULIA;AGENCE DU MARCHE;01 47 84 04 04;boiscolombes@guyhoquet.com;P;HOQUET750;Siège;1469
;33000;BORDEAUX ALBRET;Jean François HIRIGOYEN;HT IMMOBILIER;05.56.33.09.09;bordeauxalbret@guyhoquet.com;P;HOQUET122;Siège;2126
;33000;BORDEAUX CHARTRONS;Olivier LACHAMBRE;O2L IMMO;05 57 29 57 61 ;bordeauxchartrons@guyhoquet.com;P;HOQUET1139;Siège;1850
;33800;BORDEAUX NANSOUTY;Sabine BOYER;AINB;05.56.33.23.23;bordeauxnansouty@guyhoquet.com;P;HOQUET385;Siège;2020
12/05/2015;33000;BORDEAUX SAINT-SEURIN;Georges METAIRIE;B2DIMMO;05 56 23 78 02;f.metairie@guyhoquet.com  ;P;HOQUET1214;Siège;1999
13/10/2015;92100;BOULOGNE BILLANCOURT;Serge BRIARD ;AGENCE DE LA REINE;01 46 99 60 60;boulogne@guyhoquet.com;P;HOQUET1224;Siège;2080
;92100;BOULOGNE SUD ;Michel MENDES ;M.P.B;01 46 21 56 71 ;boulognesud@guyhoquet.com;P;HOQUET1166;Siège;1958
08/09/2015;1000;BOURG EN BRESSE;Béatrice BERGERY;AVENIR IMMOBILIER;04 74 21 13 43;bourgenbresse@guyhoquet.com ;P;HOQUET1219;Siège;2098
;18000;BOURGES;Hugues METEIGNIER;IMMO DIFFERENCE;02.48.48.00.80;bourges@guyhoquet.com;P;HOQUET55;Siège;x2101
;38300;BOURGOIN JALLIEU;Virginie GUEDJ;B2V IMMO;04 74 43 32 06;bourgoinjallieu@guyhoquet.com;P;HOQUET1143;Siège;1863
31/03/2016;29200;BREST CENTRE;Malik CIDERE;LES CONSEILS IMMOBILIERS;02 98 80 42 35;brestcentre@guyhoquet.com;P;HOQUET1249;Siège;2127
;27160;BRETEUIL SUR ITON;Philippe GUITTON;L'EURE DE L'IMMOBILIER;02 32 34 14 14;breteuilsuriton@guyhoquet.com;Succ.;HOQUET1069;Siège;2041
;91220;BRETIGNY SUR ORGE;Myriam MARQUANT;MARQ'IMMO;01 60 84 00 00;bretignysurorge@guyhoquet.com;P;HOQUET728;Siège;1756
;91650;BREUILLET;Jeanique BLAISE;BLAISE BREUILLET IMMOBILIER;01 60 83 80 80 ;breuillet@guyhoquet.com;P;HOQUET1058;Siège;2091
;77170;BRIE COMTE ROBERT;Olivier MARCHAL;BRIE IMMO CONSEILS;01 60 62 73 13;brie@guyhoquet.com;P;HOQUET552;Siège;2129
28/10/2015;69126;BRINDAS;Christophe ROSTAING               ;AMCR; 09 83 91 70 20;brindas@guyhoquet.com;P;HOQUET1226;Siège;2095
14/12/2015;94230;CACHAN;Guillaume GUICHAOUA et Etienne DESESQUELLES;GUIDES IMMOBILIER;01 41 24 20 20;cachan@guyhoquet.com;P;HOQUET1232;Siège;2072
;14000;CAEN ;Lionel CHARLES et Christiane ESSOME ;COTE OUEST IMMOBILIER;02.31.34.50.00;caenest@guyhoquet.com;P;HOQUET359;Siège;1980
10/03/2016;14000;CAEN BEAULIEU;Jean-Yves et Valérie RENAULT ;IMMOBILIER DE l’ODON;02 31 71 25 50;caenbeaulieu@guyhoquet.com;P;HOQUET1246;Siège;2058
;14000;CAEN CHÂTEAU;Lionel CHARLES et Christiane ESSOME ;COTE OUEST IMMOBILIER;02.31.83.20.20;caenchateau@guyhoquet.com  ;P;HOQUET1072;Siège;1981
13/04/2016;14920;CAEN MATHIEU;Jacques PROCH ;CAEN LA MER IMMOBILIER;02 31 06 15 06; caen-mathieu@guyhoquet.com ;P;HOQUET1251?;Siège;2083
;6800;CAGNES SUR MER;Vanessa CHOPLET;IMMO S.T.I.L;04 93 22 00 00;cagnes@guyhoquet.com;P;HOQUET779;Siège;1815
;66140;CANET EN ROUSSILLON;Frédéric HALIMI;HRM;04.68.80.11.84;canet@guyhoquet.com;P;HOQUET1144;Siège;1896
;40130;CAPBRETON;Jean-François BISCAYART;SUD OCEAN IMMOBILIER;05 58 70 00 00;capbreton@guyhoquet.com;P;HOQUET1121;Siège;1718
;11000;CARCASSONNE;Jean-François ALIAS;A2 IMMOBILIER;04.68.10.39.40;carcassonne@guyhoquet.com;P;HOQUET279;Siège;1793
;50500;CARENTAN;Stéphanie LEMOIGNE;JISIMO;02 33 71 16 17;carentan@guyhoquet.com;P;HOQUET727;Siège;1752
18/02/2016;84200;CARPENTRAS;Laurent THIOLOUSE;L2D PROVENCE IMMOBILIER;04 90 35 37 20;carpentras@guyhoquet.com;P;HOQUET1242;Siège;2081
11/12/2015;33480;CASTELNAU DE MEDOC;Fabrice BARREAUX;@DOMUS;05 57 88 78 25;castelnaudemedoc@guyhoquet.com ;P;HOQUET1231;Siège;2096
;34170;CASTELNAU LE LEZ;Jean François SCHNEIDER;CIP;04 67 66 16 65;castelnaulelez@guyhoquet.com;P;HOQUET589;Siège;2152
;40260;CASTETS;Dominique DEZELLUS;SAS GRANDE LANDE;05 58 72 10 00;castets@guyhoquet.com;Succ.;HOQUET295;Pas de code unique;1706
11/07/2014;22350;CAULNES;Alain DAUGAN;DAUGAN IMMOBILIER;02 96 39 12 12;caulnes@guyhoquet.com;Succ.;HOQUET362 S;Pas de code unique;1954
03/02/2016;97300;CAYENNE;Tony MIRANDE;VTLP;05 94 28 65 50;cayenne@guyhoquet.com;P;HOQUET1239;Siège;326
;68700;CERNAY;Fabrice CHAUSSALET;ELSASS HOME;03 68 36 14 60;cernay@guyhoquet.com;P;HOQUET1145;Siège;1880
;51000;CHALONS EN CHAMPAGNE;Marie-Claire de PAULI;L'AIDAIN;03.26.65.88.05;chalonsenchampagne@guyhoquet.com;P;HOQUET1053;Siège;1808
;71100;CHALON-SUR-SAÔNE;Jean-Pierre FEMENIA et Claire SAIVE;NICEPHORE IMMO;03 85 43 63 83;chalonsursaone@guyhoquet.com;P;HOQUET1173;Siège;1947
;73000;CHAMBERY;Thibaud DEWIT;CITY'IMMO;04 79 33 89 49;chambery@guyhoquet.com;P;HOQUET1016;Siège;2106
;94500;CHAMPIGNY SUR MARNE;Jérémy MOSIN;IMMOFUTUR;01.55.12.31.12;champignyjoinville@guyhoquet.com;P;HOQUET113;Siège;2066
;60500;CHANTILLY;Mr CAUCHY;MJ IMMOBILIER;03 44 67 22 79;chantilly@guyhoquet.com;P;HOQUET1087;Siège;1684
19/10/2016;69630;CHAPONOST;Daniel MERLE ;IMMODM;04 78 44 63 75;chaponost@guyhoquet.com;Succ.;HOQUET1112;Pas de code unique;1820
;8000;CHARLEVILLE MEZIERES;Eric REDOUTE;SARL MON AGENCE;03 24 33 00 50;charleville@guyhoquet.com;P;HOQUET1149;Siège;1926
;28000;CHARTRES;Pascal PLANCHON;AGENCE AVENIR HL IMMOBILIER;02.37.200.200;chartres@guyhoquet.com;P;HOQUET100;Siège;1975
;53200;CHÂTEAU GONTIER;Amélie BRECHETEAU;ALF IMMO;02 43 70 48 08;chateaugontier@guyhoquet.com;P;HOQUET1043;Siège;2141
;28200;CHATEAUDUN;Jean Louis CLAVEAU;CLAVEAU IMMOBILIER;02 37 45 05 57;chateaudun@guyhoquet.com;P;HOQUET608;Siège;2130
;28170;CHATEAUNEUF EN THYMERAIS;Laurent SIMON;SIMON IMMOBILIER;02 37 51 00 28;chateauneuf28@guyhoquet.com;Succ.;HOQUET391;Siège;1778
23/05/2016;45110  ;CHATEAUNEUF SUR LOIRE ;Christian ANDRE             ;C.J. IMMO;02 38 600 900;chateauneuf45@guyhoquet.com ;Succ.;HOQUET1254;Siège;1898
;92320;CHATILLON;Gilles PAPON;RECTANGLE IMMO;01.47.35.07.35;chatillon@guyhoquet.com;P;HOQUET294;Siège;1716
04/11/2015;78400;CHATOU;Nathalie  et Olivier GUIOT ;AGENCE DE L’HOTEL DE VILLE;01 30 53 25 25;chatou@guyhoquet.com ;P;Hoquet1227;Siège;2077
14/01/2015;92370;CHAVILLE;Jean-Charles BEYLERIAN et Muriel ROOSENS;CHAVILLE IMMOBILIER;01 47 50 82 80 ;;P;HOQUET1197;Siège;2039
;77500;CHELLES;Paul HINTERMEYER;PHIMMO;01 60 08 99 99;chelles@guyhoquet.com;P;HOQUET436;Siège;2015
;91380;CHILLY MAZARIN;Gaël KERVININEN et Fabrice GUTTON;GK INVESTISSEMENT;01 64 53 13 13 ;chilly@guyhoquet.com;P;HOQUET619;Siège;1712
;92140;CLAMART;Bruno FERRI;CLAMART IMMOBILIER;01.46.44.75.61;clamart@guyhoquet.com;P;HOQUET1160;Siège;1946
;92140;CLAMART;Bruno FERRI;SARL AGENCE CENTRALE CLAMART;01 41 46 08 08;clamartcentre@guyhoquet.com;P;HOQUET33;Siège;1946
;60600;CLERMONT DE L'OISE;Eric CAUCHY;DORENAVANT;03 44 19 23 80;clermontdeloise@guyhoquet.com;P;HOQUET399;Siège;2010
;92110;CLICHY LA GARENNE;Fabrice HOUNKPATIN;2H IMMO;01 42 70 52 59;cabinet92est@guyhoquet.com;P;GHEC0046;GHEC;2025
;68000;COLMAR;Alain ANCELLE ;ALMAVIMMO;03 89 24 08 07 ;colmar@guyhoquet.com;P;HOQUET1113;Siège;1824
;92700;COLOMBES;Xavier CANAC et Jean-Yves DESNOUX;CADE IMMOBILIER;01.55.66.09.09;colombes@guyhoquet.com;P;HOQUET315;Siège;1858
;77380;COMBS LA VILLE;Mickael MOUL;MKM IMMOBILIER;01 64 88 08 58;combslaville@guyhoquet.com;P;HOQUET411;Siège;1935
;91100;CORBEIL ESSONNES;Jean-Philippe MILLOUR;JP2M IMMOBILIER;01 69 22 14 50;corbeilessonnes@guyhoquet.com;P;HOQUET398;Siège;1931
;77170;COUBERT;Olivier MARCHAL;COUBERT IMMO CONSEILS;01 64 16 34 00;coubert@guyhoquet.com ;Succ.;HOQUET1091;Siège;1593a3
;92400;COURBEVOIE;Didier PEDELMAS;SASU AXSTREAM;01 46 67 46 50;courbevoie@guyhoquet.com;P;HOQUET1162;Siège;1884
;28190;COURVILLE;Laurent SIMON;SIMON IMMOBILIER;02 37 23 37 21;courville@guyhoquet.com;P;HOQUET170;Siège;1778
;26400;CREST;Lucile BERNARD;LUL IMMO;04 69 30 81 00;crest@guyhoquet.com;P;HOQUET1056;Siège;2109
27/07/2016;94000;CRETEIL;Laurent BALY;CLB IMMOBILIER;01 77 01 85 61;creteil@guyhoquet.com;P;HOQUET1260;Siège;2125
;74350;CRUSEILLES;Laurent MOILLET;EPICENTRE IMMOBILIER;04 50 77 9000 ;cruseilles@guyhoquet.com;P;HOQUET1029;Siège;1903
;14800;DEAUVILLE;Audrey DUCROCQ et Nicolas TOUCHERON;DT IMMO;02 31 89 91 91;deauville@guyhoquet.com;P;HOQUET1021;Siège;2057
;69150;DECINES;Damien BOUCQ ;DMTG IMMOBILIER;04.37.42.16.50;decines@guyhoquet.com;P;HOQUET1062;Siège;1636
;21000;DIJON;Dominique ROUFFIANDIS;M.P.R IMMOBILIER;03 80 73 21 21;dijontoisondor@guyhoquet.com;P;HOQUET845;Siège;1846
;35120;DOL DE BRETAGNE;Mathilde BRYON;SARL STUARTS IMMOBILIER;02 99 48 04 44;doldebretagne@guyhoquet.com;P;HOQUET1152;Siège;1915
;17550;DOLUS D'OLERON;Dominique BLANCHIER;DOMINIQUE IMMOBILIER;05 46 36 91 95;iledoleron@guyhoquet.com;P;HOQUET479;Siège;1974
;59500;DOUAI;Jean Christophe DOCHEZ;JCD IMMOBILIER;03.27.08.22.44;douai@guyhoquet.com;P;HOQUET320;Siège;1853
;83300;DRAGUIGNAN;Philippe BOULET;AGENCE IMMOBILIERE BOULET;04.94.39.20.60;draguignan@guyhoquet.com;P;HOQUET1034;Siège;2053
13/05/2016;93700;DRANCY;Rémy JANSEN et Anthony  PITKANITSOS COHEN ;IMMO MARCEAU;01 48 32 18 57;drancy@guyhoquet.com;P;HOQUET675;Siège;1654
;91210;DRAVEIL;Sailendra RAMSAMY;ART CONSEIL IMMOBILIER;01 69 73 20 29;draveil@guyhoquet.com;P;HOQUET451;Siège;1836
;59240;DUNKERQUE;Pierre HEBBEN et Vincent BOULOGNE;BVH IMMOBILIER;03 28 28 00 60;dunkerquemalo@guyhoquet.com;P;HOQUET734;Siège;1744
26/09/2014;95600;EAUBONNE;"Franck SANANES Emmanuelle YOT";SYA;01 84 86 07 06;eaubonne@guyhoquet.com ;P;HOQUET1185;Siège;1948
;56250;ELVEN;Anne LANCELOT;SERVICE IMMOBILIERS DE L'ARGOET;02 97 53 03 03;elven@guyhoquet.com;P;HOQUET358;Siège;1801
;51200;EPERNAY;David PECCEU et José CAZE;ACTIF IMMO;03.26.55.94.94;epernay@guyhoquet.com;P;HOQUET173;Siège;1682
08/06/2015;93800;EPINAY-SUR-SEINE;Julie DERRICHE;JLD IMMOBILIER;01 48 47 46 45;epinay@guyhoquet.com  ;P;HOQUET1215;Siège;2030
;78680;EPONE;Jean-Baptiste HEBERT;HAPPIMMO 78;01 30 91 19 27;epone@guyhoquet.com;P;HOQUET452;Siège;1831
;67150;ERSTEIN;Gérard SPANIER ;RIED IMMO;03 88 98 83 48;erstein@guyhoquet.com;P;HOQUET1170;Siège;1921
;76260;EU;Florence CREVECOEUR;LOISEAU IMMO;02.35.50.54.54;eu@guyhoquet.com;P;HOQUET103;Siège;1788
;22630;EVRAN;Alain DAUGAN;DAUGAN IMMOBILIER;02 96 39 12 12;evran@guyhoquet.com ;P;HOQUET362;Siège;1954
;91000;EVRY;Patrick MILLOUR;JPMD IMMOBILIER;01 60 79 00 00;evry@guyhoquet.com;P;HOQUET1155;Siège;2182
;27530;EZY SUR EURE;Christèle JORET ;Sarl JORET Immobilier;02 37 62 49 49;ezy@guyhoquet.com;P;HOQUET1020;Siège;1956
;42110;FEURS;Serge THOLONIAT;LES CLEFS DU FOREZ;04 77 26 00 20;feurs@guyhoquet.com;P;HOQUET694;Siège;1724
;69270;FONTAINES SUR SAONE;Pascal PAYSANT;3MP IMMOBILIER;04.72.42.35.35;fontainessursaone@guyhoquet.com;P;HOQUET366;Siège;1928
;92260;FONTENAY AUX ROSES;Gilles PAPON;IMMOFAR;01.55.52.12.12;fontenayauxroses@guyhoquet.com;P;HOQUET120;Siège;1705
;85200;FONTENAY LE COMTE;Magali LECOCQ;FONTENAY LE COMTE IMMO;02 51 50 43 93;fontenaylecomte@guyhoquet.com;P;HOQUET425;Siège;1966
;94120;FONTENAY SOUS BOIS;Stéphane RETIF;AAA Immobilier;01 43 94 96 96;fontenaysousbois@guyhoquet.com;P;HOQUET1018;Siège;2108
;77610;FONTENAY TRESIGNY;Madani KOITA;MAKSIMMO;01 64 07 91 43;fontenaytresigny@guyhoquet.com;Succ.;HOQUET1132;Siège;2155
28/07/2016;91470;FORGES LES BAINS ;Hervé et Laure PONS;AGENCE IMMOBILIERE DE FORGES;01 64 91 12 54;forges@guyhoquet.com;P;HOQUET1261;Siège;2036
;95130;FRANCONVILLE;Henri Moggia;M C P B;01 30 72 10 20;franconville@guyhoquet.com;P;HOQUET556;Siège;1914
14/09/2015;94260;FRESNES;Laurent LELAIDIER;IMAGIN IMMO;01 46 89 30 52;fresnes@guyhoquet.com ;P;HOQUET1222;Siège;2097
;31620;FRONTON;Emmanuel BRESSON;IMO COM;05 61 35 03 41;fronton@guyhoquet.com;P;HOQUET1259;Siège;1898
15/07/2015;92380;GARCHES;Eric POUILLOT;EPO IMMO;01 81 93 70 80;garches@guyhoquet.com  ;P;HOQUET1216;Siège;2024
07/08/2015;94250;GENTILLY;Muriel ANGLES;ANGLISSIMO;01 49 08 09 09;gentilly@guyhoquet.com  ;P;HOQUET1218;Siège;2059
29/12/2015;14730;GIBERVILLE;Jérôme AUTRET               ;AUTRET-IMMO;02 31 72 28 58;giberville@guyhoquet.com   ;P;HOQUET1235;Siège;2073
;27140;GISORS;Corinne Libois;Maisons et propriétés;02 32 27 29 90;gisors@guyhoquet.com;P;HOQUET1137;Siège;1909
;69700;GIVORS;Miguel VELOSO;RHONE SUD IMMOBILIER;04 78 07 44 00 ;givors@guyhoquet.com;P;HOQUET514;Siège;2014
;31330;GRENADE;Thierry GINER;SAN MATEO;05 61 82 05 17;grenade@guyhoquet.com ;P;HOQUET1172;Siège;1962
;77220;GRETZ ARMAINVILLIERS;Madani KOITA;KORIMMO;01 64 42 09 71;gretz@guyhoquet.com;P;HOQUET525;Siège;2155
;68100;GUEBWILLER;Olivier TSCHAENN;SUD ELSASS IMMOBILIER;03 68 10 00 45;guebwiller@guyhoquet.com;P;HOQUET1130;Siège;1879
;77390;GUIGNES;Olivier MARCHAL;BRIE IMMO CONSEILS;01 64 42 80 78;guignes@guyhoquet.com;Succ.;HOQUET871;Siège;2129
13/03/2015;83400;HYERES;Nathalie GENET;NG IMMOBILIER;;hyeres@guyhoquet.com ;P;HOQUET1204;Siège;2012
;67400;ILLKIRCH GRAFFENSTADEN;Pierre LEY;ILL'YMO ;03.90.40.33.00;illkirch@guyhoquet.com;P;HOQUET643;Siège;2168
;92130;ISSY LES MOULINEAUX;Hervé POINSON et Michel MENDES;ISSYMMO;01.46.38.18.38;issy@guyhoquet.com;P;HOQUET45;Siège;2150
;92130;ISSY SEINE;Hervé POINSON et Michel MENDES;MPI;01 41 08 98 98;issyseine@guyhoquet.com;Succ.;HOQUET1041;Siège;2151
;94200;IVRY SUR SEINE;Hafida BENCHERNINE et William KOURORIEZ;HAFIMMO;01 46 70 14 14;ivry@guyhoquet.com;P;HOQUET18;Siège;1747
;45150;JARGEAU;Jérôme LACOFFRETTE;JERON'IMMO;02 38 46 14 61;jargeau@guyhoquet.com;P;HOQUET834;Siège;1898
;17500;JONZAC;Olivier ROUBY;REIS IMMO;05 46 70 03 06;jonzac@guyhoquet.com;P;HOQUET412;Siège;1960
06/04/2016;34990;JUVIGNAC;Bruno MEZI ;BPMI;04 67 79 83 93; juvignac@guyhoquet.com ;Succ.;HOQUET1127 S;Pas de code unique ;1851
19/03/2015;91260;JUVISY-SUR-ORGE;Aurélie OUTHIER ;AURIMMO 91;01 69 12 12 00;juvisy@guyhoquet.com ;Succ.;HOQUET1205;Siège;1746
;91260;JUVISY-SUR-ORGE;Aurélie OUTHIER ;AURIMMO 91;01 69 12 12 00;juvisy@guyhoquet.com ;Succ.;HOQUET757 S;Pas de code unique;1746
;;KOUROU;Tony MIRANDE;VTLP;05 94 32 20 20 ;kourou@guyhoquetguyane.com;Succ.;HOQUET1239;Pas de code unique;326
;94240;L’HAY LES ROSES;Alexandre FORET ;AG CONSEILS;01.49.08.09.10;lhaylesroses@guyhoquet.com;P;HOQUET1262;Siège;2158
;44500;LA BAULE ESCOUBLAC;Franck LEROY;2L IMMOBILIER;02 51 73 70 00;labaule@guyhoquet.com;P;HOQUET1122;Siège;1856
;78170;LA CELLE SAINT CLOUD;Thibault PIAT;AGENCE DE LA DRIONNE;01 30 08 24 24;lacellesaintcloud@guyhoquet.com;P;HOQUET850;Siège;1883
;17630;LA FLOTTE;Vincent MESPLEDE;TOIT EN RE IMMOBILIER;05 46 01 75 94;laflotteenre@guyhoquet.com;P;HOQUET1134;Siège;1875
;74800;LA ROCHE SUR FORON;Michel Xavier MOREL;SARL FJ IMOINVEST;04.50.97.68.00;larochesurforon@guyhoquet.com;P;HOQUET1014;Siège;
;85000;LA ROCHE SUR YON;Lionel LAVOGEZ;AGENCE IMMOBILIERE NUEVA;02.51.24.11.60;rochesuryon@guyhoquet.com;P;HOQUET330;Siège;1784
;17137;LA ROCHELLE OUEST;Tony BUCCI;KOAL'IMMO;05 46 01 04 04;"larochelleouest@guyhoquet.com";P;HOQUET1074;Siège;1877
;17000;LA ROCHELLE SUD EST;Stéphane PRADES;VILLA' REAL;05.46.55.14.14;larochellesud@guyhoquet.com;P;HOQUET1013;Siège;1884
19/10/2015;33260  ;LA TESTE DE BUCH;Olivia et Valérie TESSEIDRE               ;TEISSEIDRE & CO;05 56 22 38 88;latestedebuch@guyhoquet.com;P;HOQUET1225;Siège;2043
;38110;LA TOUR DU PIN;Gilles LE CHARTIER;GLC IMMO;09 73 31 34 80;latourdupin@guyhoquet.com;P;HOQUET1055;Siège;2116
10/02/2016;17390;LA TREMBLADE;Dominique BLANCHIER ;DOMINIQUE IMMOBILIER;05 46 76 04 04;latremblade@guyhoquet.com  ;P;HOQUET1241;Siège;2111
17/06/2014;40530;LABENNE;Jean-François BISCAYART;SUD OCEAN IMMOBILIER;05 58 70 00 00;labenne@guyhoquet.com;Succ.;HOQUET1121 S;Pas de code unique;1718
;77410;LAGNY SUR MARNE;Brigitte ERSBOLL;B.D.C. Business Development Consulting ;01.60.31.77.88;lagny@guyhoquet.com;P;HOQUET115;Siège;1891
;43300;LANGEAC;Vincent ROUBAUD et Nicolas COMTE;CR IMMO;04 71 77 30 87 ;langeac@guyhoquet.com;P;HOQUET1070;Siège;1660
04/05/2015;33210;LANGON;Claude RICHARD (Mme);GESTION LOCATIVE EN GIRONDE; 56 63 65 96;langon@guyhoquet.com ;Succ.;HOQUET1213;Siège;1936
;33210;LANGON;Franck RICHARD;CALUMA;05.56.63.65.96;langon@guyhoquet.com;P;HOQUET371;Siège;1936
16/03/2016;34970;LATTES;"Mme Charlotte PANSIER M. Gabriel PANSIER ";CMP IMMOBILIER;04 99 92 09 88;lattes@guyhoquet.com;P;HOQUET1247;Siège;2047
05/10/2016;33110;LE BOUSCAT;Dorothée SIMON;CABINET DU PARC BORDELAIS;05 56 00 77 17;bordeauxcauderanbouscat@guyhoquet.com ;P;HOQUET1266;Siège;2183
;6110;LE CANNET;Didier PLANE;ADAP EXCELLENCE IMMO;04.92.18.40.40;lecannet@guyhoquet.com;P;HOQUET283;Siège;1631
30/06/2016;78000;Le Chesnay;Pierre HEBERT;CAPIMMO;01 83 43 60 63;lechesnay@guyhoquet.com;P;HOQUET868;Siège;2198
06/10/2015;91830;LE COUDRAY MONTCEAUX;"Jean-Luc PINI Frédéric PETIT ";A DEUX PAS IMMOBILIER;01 60 78 90 51;lecoudray@guyhoquet.com;P;HOQUET1223;Siège;2023
09/12/2015;94270;LE KREMLIN-BICETRE;LISE HE;France IMMOBILIER;01 46 70 12 34;kremlinbicetre@guyhoquet.com;P;HOQUET1230;Siège;2087
16/04/2015;72000;LE MANS;Jean-Marie VEILLON;MONOD IMMO;02 43 23 51 80;lemans@guyhoquet.com  ;P;HOQUET1211;Siège;1985
;83490;LE MUY;Frédéric REYTER;ENVIE DE TOIT;04 83 12 80 12;f.reyter@guyhoquet.com ;P;HOQUET810;Siège;1781
;94170;LE PERREUX SUR MARNE;Joffrey SERVAL;JSR IMMO;01 75 64 05 44;leperreux@guyhoquet.com;P;HOQUET1046;Siège;2040
;62300;LENS;Bernard Coffinet;LLA Immobilier;03 21 20 39 18;lens@guyhoquet.com;P;HOQUET1142;Siège;1882
;93260;LES LILAS;Jean-Jacques BARDIN;ESTIMMO;01.55.82.16.16;leslilas@guyhoquet.com;P;HOQUET105;Siège;2019
;85100;LES SABLES D'OLONNE;Charles-Louis SCERRI;SCERRI IMMO LES SABLES ;02 51 21 14 15;lessables@guyhoquet.com;P;HOQUET1023;Siège;2067
;92300;LEVALLOIS PERRET;Cédric DENIS;L’IMMOBILIERE DU CENTRE;01 41 05 00 40;levallois@guyhoquet.com;P;HOQUET1109;Siège;1679
;33500;LIBOURNE;Thierry HAUGUEL;THIERRY HAUGUEL IMMOBILIER;05.57.55.18.55;libourne@guyhoquet.com;P;HOQUET180;Siège;2148
;77127;LIEUSAINT;Mickael MOUL et Jean-Philippe LISSANDRES ;VILA SARL;01 60 18 8000;melunsenart@guyhoquet.com;P;HOQUET333;Siège;1933
11/10/2016;94450;LIMEIL BREVANNES;David COURTIN;COURTINVESTIMMO;01 45 10 50 00;limeil-brevannes@guyhoquet.com  ;P;HOQUET1268;Siège;2228
15/12/2015;14100;LISIEUX;Annick et Daniel DESHAYES;IMMOLIS;02 31 31 80 00;lisieux@guyhoquet.com;P;HOQUET1233;Siège;2071
;84800;L'ISLE SUR LA SORGUE;Jean-Marc VILLETTE;JMD;04 90 21 43 80;islesursorgue@guyhoquet.com;P;HOQUET382;Siège;1938
;91090;LISSES;Patrick MILLOUR;JP3M IMMOBILIER;01 60 91 16 05;lisses@guyhoquet.com;P;HOQUET719;Siège;1745
;26250;LIVRON SUR DROME;Benoît MACLIN;DROME LAND;04 75 61 15 55;livron@guyhoquet.com;P;HOQUET650;Siège;1713
;93190;LIVRY GARGAN;Brice MOUTINHO;MOUTINHO CONSEIL IMMOBILIER;01 41 52 22 22 ;livrygargan@guyhoquet.com;P;HOQUET781;Siège;1806
;91160;LONGJUMEAU;Gaël KERVININEN et Fabrice GUTTON;GK INVESTISSEMENT;01 69 74 12 73;longjumeau@guyhoquet.com;P;HOQUET414;Siège;2156
;61290;LONGNY AU PERCHE;Arnaud MORTIER;ARNAUD MORTIER;02 33 25 78 68;longnyauperche@guyhoquet.com;Succ.;HOQUET1000;Siège;1918
19/05/2016;Lux;Luxembourg;Fernando SOUSA et Geoffrey DEPRE;Luxembourg Immobilière;00352 28 99 39 39;contact@guyhoquet.lu;P;HOQUET1236;Siège;2114
23/03/2015;69002;LYON 2;Vincent MAZZOCCO ;FRANKLIN IMMOBILIER;04 81 65 35 70;lyon2@guyhoquet.com ;P;HOQUET1207;Siège;2044
;69003;LYON 3;Michel BADEY;BADEY IMMOBILIER;04 37 56 78 07;lyon3@guyhoquet.com;P;HOQUET1176;Siège;1906
16/12/2015;69003;LYON 3 OUEST;Kim NIELSEN-KOLDING               ;NIELSEN IMMO;04 72 07 46 00;lyon3ouest@guyhoquet.com  ;P;HOQUET1234;Siège;2054
;69004;LYON 4è;Patrick ARNAUD;L'IMMOBILIERE DU PLATEAU;04.72.07.46.00;Lyon4@guyhoquet.com;P;HOQUET1075;Siège;new1666
;69006;LYON 6è;François LEROY;BROTTEAUX IMMOBILIER CONSEIL;04.37.24.08.89;lyon6@guyhoquet.com;P;HOQUET1019;Siège;2082
;69007;LYON 7è;Gaël FLUCHAIRE;STYX IMMO;04.72.76.70.80;lyon7@guyhoquet.com;P;HOQUET57;Siège;2042
09/02/2015;69009;LYON 9;Eric TOURRUCOU;RHONE SERVICE IMMOBILIER;04 72 20 02 05 ;lyon9@guyhoquet.com ;P;HOQUET1200;Siège;2003
24/02/2015;28130;MAINTENON;Vincent GILLOT;AGENCE DE LA VALLEE;02 37 27 10 13;maintenon@guyhoquet.com;P;HOQUET1201;Siège;2004
;94700;MAISONS ALFORT;Laurent GOLDENBERG;DELPHIMMO;01.45.18.38.38;maisonsalfort@guyhoquet.com;P;HOQUET62;Siège;2033
24/02/2015;57280;MAIZIERE-LES-METZ;Christophe MICHEL;LOGANE IMMO;03 87 51 90 59;maiziereslesmetz@guyhoquet.com;P;HOQUET1202;Siège;2048
;92240;MALAKOFF;Hervé POINSON et Michel MENDES;M.P.M EURL;01.46.57.70.26;malakoff@guyhoquet.com;P;HOQUET876;Siège;1967
;45330;MALESHERBES;Johann BERTHELOT;JEAN ET MICHELE IMMOBILIER;02 38 34 10 07;malesherbes@guyhoquet.com;P;HOQUET696;Siège;1721
;78200;MANTES LA JOLIE;Xavier LEGRAND;GAMBETTA IMMOBILIER 78;01 30 98 30 60;manteslajolie@guyhoquet.com;P;HOQUET417;Siège;1961
;59700;MARCQ EN BAROEUL;Eric PETIT;IMMOBILIERE DU QUINTE;03 20 75 37 12 ;marcqenbaroeul@guyhoquet.com;P;HOQUET1108;Siège;1734
;17320;MARENNES;Dominique BLANCHIER;DOMINIQUE IMMOBILIER;05 46 85 00 06 ;marennes@guyhoquet.com;Succ.;HOQUET738;Siège;1974
;60280;MARGNY LES COMPIEGNE;Charles COPIGNY;BLUEWAY;03 44 30 02 85;compiegne@guyhoquet.com;P;HOQUET383;Siège;2011
;78160;MARLY LE ROI;Jean-Philippe MARRO;Immobilière JPMBL;01 30 08 65 65;marlyleroi@guyhoquet.com;P;HOQUET1098;Siège;1754
;47200;MARMANDE;Mahjob EL BOUMEDIANI;B.HOME;05 53 64 36 36;marmande@guyhoquet.com;P;HOQUET1049;Siège;2157
;Etranger;"MAROC MARRAKECH";Othmane et Laîla Benhallam;INITIAL IMMOBILIER;00 212 24 44 64 23;marrakech@guyhoquet.com;P;HOQUET832;Siège;2147
;91300;MASSY;Fabrice GUTTON ;AJC IMMO;01.69.53.82.60;massy@guyhoquet.com;P;HOQUET303;Siège;1913
;77000;MELUN;Christophe HAPPART;HAPPART IMMOBILIER;01.60.59.07.33;melun@guyhoquet.com;P;HOQUET332;Siège;1577
;33700;MERIGNAC;Christian MERCIER;RESERVOIR IMMO;05 56 12 86 00;merignac@guyhoquet.com;P;HOQUET1159;Siège;1905
;57000;METZ;Brigitte TRIGANO;CTIS;03.87.32.20.90;metz@guyhoquet.com;P;HOQUET544;Siège;2110
;92360;MEUDON LA FORET;Jacques SISLIAN et Bruno ROVILLAIN;LE PATIO;01 40 83 16 75;meudonlaforet@guyhoquet.com;Succ.;HOQUET612;Siège;1759
;34140;MEZE;Frank SOURIN ;BASSIN DU THAU IMMOBILIER;04 67 434 434 ;meze@guyhoquet.com ;P;HOQUET1151;Siège;1911
;40200;MIMIZAN;Dominique DEZELLUS;GRANDE LANDE;05.58.83.58.58;mimizan@guyhoquet.com;Succ.;HOQUET295 S;Pas de code unique;1706
;1700;MIRIBEL;Yohan AMAR;MENIERE ET AMAR L’IMMOBILIER;04 72 25 40 00;miribel@guyhoquet.com;P;HOQUET1116;Siège;1826
;77290;MITRY MORY;Denis DUSSART;ACCORD IMMO;01.60.21.04.21;mitry@guyhoquet.com;P;HOQUET247;Siège;1847
;67120;MOLSHEIM;Sylvère HUMBERT;SYLCOR SARL;03.88.04.68.54;molsheim@guyhoquet.com;P;HOQUET222;Siège;2153
24/07/2014;89470;MONETEAU;Lucien VERNAGALLO;ETI IMMOBILIER;03 86 40 57 33;moneteau@guyhoquet.com ;P;HOQUET1180;Siège;1987
08/03/2016;40000;MONT DE MARSAN;"M. Charles DEGANS M. Thomas FELIX ";DF IMMOBILIER;05 24 28 54 59;montdemarsan@guyhoquet.com;P;HOQUET1245;Siège;2135
21/01/2016;82000;MONTAUBAN;"Mme Véronique DE LASSALLE et M. Thomas PETROVIC ";TOMTOM IMMOBILIER;05 63 03 88 10;montauban@guyhoquet.com;P;HOQUET1238;Siège;2122
26/08/2014;37250;MONTBAZON;Ambroise de NORAY;AMBROISE IMMO;02 47 80 01 99;montbazon@guyhoquet.com;P;HOQUET1182;Siège;1982
;42600;MONTBRISON;Jean-Luc CHANUT;J.T.F.CHANUT IMMOBILIER;04 77 76 05 88;montbrison@guyhoquet.com;P;HOQUET827;Siège;1809
;26600;MONTELIMAR;Pascal AVINENS et Arnaud MEHL ;A.P. CONSEILS ET TRANSACTIONS;04 75 96 42 82 ;cabinetdromeardeche@guyhoquet.com;P;GHEC0062;GHEC;2026
;26200;MONTELIMAR;Pascal AVINENS, Arnaud Mehl et Jean-François ALCARAZ;SAS JAP IMMO;04 75 96 42 82;montelimar@guyhoquet.com;P;HOQUET1135;Siège;1774
;77130;MONTEREAU FAULT YONNE;Carlos ERVALHO;LABOEER IMMOBILIER MONTEREAU;01 64 70 36 22;montereau@guyhoquet.com;P;HOQUET1105;Siège;1772
;78180;MONTIGNY LE BRETONNEUX;Fernand D’AMATO;Sweet Home Immo;01 30 48 07 00;montigny78@guyhoquet.com;P;HOQUET1017;Siège;2035
11/05/2016;91310;MONTLHERY;Bruno DELAMBILY ;AGENCE IMMOBILIERE DE MONTLHERY;01 69 63 35 00; montlhery@guyhoquet.com ;P;HOQUET1248;Siège;2084
;34090;MONTPELLIER nord;Roudaïna MARCHAL;SOCONSIM;04 99 23 00 87;montpelliernord@guyhoquet.com;P;HOQUET521;Siège;2007
;34080;MONTPELLIER ouest;Bruno MEZI;BPMI;04.67.87.48.80;montpellier-ouest@guyhoquet.com;P;HOQUET1127;Siège;1851
;34000;MONTPELLIER SUD;Guillaume VERBIZIER;AVB IMMOBILIER;04.11.28.00.90;montpelliersud@guyhoquet.com;P;HOQUET1131;Siège;1849
23/12/2015;93000;MONTREUIL MAIRIE;Laurent BRIENT               ;BRIENT IMMOBILIER;01 48 37 47 37;montreuil.mairie@guyhoquet.com;P;HOQUET1228;Siège;2075
02/12/2014;93100;MONTREUIL OUEST;Larbi BELAYACHI;EASY14 IMMOBILIER;01 82 30 87 60;montreuilouest@guyhoquet.com;P;HOQUET1192;Siège;1943
;92120;MONTROUGE;Michel MENDES;REAL IMMOBILIER;01.47.35.31.31;montrouge@guyhoquet.com;P;HOQUET10;Siège;2149
;77250;MORET-SUR-LOING;Carlos ERVALHO;LABOEER IMMOBILIER MORET;01 64 22 17 13;moret@guyhoquet.com ;P;HOQUET1150;Siège;1945
;69440;MORNANT;Miguel VELOSO;RHONE SUD IMMOBILIER;04 27 02 14 06;mornant@guyhoquet.com;Succ.;HOQUET763;Siège;2014
;91390;MORSANG SUR ORGE;Michel PERSECHINI;LOGIA IMMOBILIER;01 69 46 59 59;morsangsurorge@guyhoquet.com;P;HOQUET842;Siège;1895
11/07/2016;68100;MULHOUSE;David BALIN;IMPERIUM;03 89 600 601;mulhouse@guyhoquet.com ;P;HOQUET1257;Siège;2132
08/04/2016;54000;NANCY CENTRE;Elise et Jean Baptiste DUBOIS;ANJE IMMOBILIER;03 57 80 04 20;nancycentre@guyhoquet.com;P;HOQUET1250;Siège;2123
;92000;NANTERRE;Efflam LE LOREC;BRENMAR IMMO;01.41.37.67.67;nanterre@guyhoquet.com;P;HOQUET249;Siège;1758
;44000;NANTES Nord;Mickael MARCHAND;2M IMMO;02.28.23.19.69;nantesnord@guyhoquet.com;Succ.;HOQUET505 S;Pas de code unique;1550
;77140;NEMOURS;Carlos ERVALHO;LABOEER IMMOBILIER NEMOURS;01 64 78 04 88;nemours@guyhoquet.com;P;HOQUET1106;Siège;1709
;76270;NEUFCHATEL;Dominique LOISEAU et Hervé LEMOINE;CDLI;02.32.97.19.19;neufchatel@guyhoquet.com;P;HOQUET999;Siège;1787
;93360;NEUILLY PLAISANCE;Jean-Philippe SONNAC;JPLS IMMOBILIER;01 49 44 66 66;neuillyplaisance@guyhoquet.com;P;HOQUET416;Siège;1957
;45170;NEUVILLE AUX BOIS;Ludovic JAVOY  ;JADIMMO;02 38 75 17 17;neuvilleauxbois@guyhoquet.com;P;HOQUET1256;Siège;1898
;93130;NOISY LE SEC;Jérome HERRERA;AEI;01 48 96 15 30;noisylesec@guyhoquet.com;P;HOQUET487;Siège;2068
;91340;OLLAINVILLE;Myriam et Hervé MARQUANT;MDMH Immobilier;01 60 83 62 32;ollainville@guyhoquet.com;P;HOQUET1035;Siège;1426
;84100;ORANGE;Pierre DOUMENGE;DOUMENGE IMMO;04 90 30 91 13;orange@guyhoquet.com;P;HOQUET1188;Siège;1968
;45000;ORLEANS Centre;Arnaud MERLET;MERLET IMMO;02 38 548 548;orleanscentre@guyhoquet.com;P;HOQUET618;Siège;1560
30/09/2016;45100;ORLEANS Sud;Josiane DELAUNAY ;GMAX;02 45 40 03 30;orleanssud@guyhoquet.com ;P;HOQUET1265;Siège;2173
;91400;ORSAY;Simon BOUSQUET ;SBT IMMOBILIER;01 60 92 03 03;orsay@guyhoquet.com;P;HOQUET701 P;Pas de code unique;1944
;64300;ORTHEZ;Laurent OTERO;IMMOPLUS;05 59 69 38 16;orthez@guyhoquet.com;P;HOQUET461;Siège;1993
;44700;ORVAULT (Nantes nord);Mickael MARCHAND;2M IMMO;02 51 83 68 68;nantesnord@guyhoquet.com;P;HOQUET505;Siège;1550
;69600;OULLINS;Romain SOLENNE;ZEN IMMOBILIER;04.78.16.82.82;oullins@guyhoquet.com;P;HOQUET292;Siège;2005
08/09/2015;1100;OYONNAX;Béatrice BERGERY;AVENIR IMMOBILIER;04 74 12 04 10;oyonnax@guyhoquet.com;P;HOQUET1220;Siège;2099
;77330;OZOIR LA FERRIERE;Olivier MARCHAL;COUBERT IMMO CONSEILS;01 60 02 02 11;ozoir@guyhoquet.com;Succ.;HOQUET1158;Siège;1593a3
;40160;PARENTIS EN BORN;Dominique DEZELLUS;GRANDE LANDE;05.58.82.58.58;parentis@guyhoquet.com;P;HOQUET295;Siège;1706
;75009;PARIS 09 est;Thierry ROBIN;ADN IMMOBILIER;01.44.63.52.52;paris9est@guyhoquet.com;P;HOQUET6;Siège;1873
;75010;PARIS 10 Nord;Arié HAZAN;AS PARTNER;01 45 23 10 10;paris10bonnenouvelle@guyhoquet.com;P;HOQUET747;Siège;1930
;75011;PARIS 11;"Philippe THOMAS et Céline MELOU";ASIOB;01 40 21 15 15;paris11@guyhoquet.com;P;HOQUET21;Siège;1751
09/10/2014;75011;PARIS 11 Bastille et 12 Nation;Bruno GAUTHIER;JB IMMO;06 52 55 54 72;paris11bastille@guyhoquet.com ;P;HOQUET1189;Siège;1971
21/10/2016;75011;PARIS 11 république ;Alain DOKUM;ETUDE DLL;01 53 19 49 49;paris11republique@guyhoquet.com;P;HOQUET1272;Siège;
;75011;PARIS 11 VOLTAIRE;Lionel BISMUTH;VOLTAIRE IMMOBILIER;01 40 09 54 60;paris11voltaire@guyhoquet.com;P;HOQUET1177 ;Siège;1965
;75012;PARIS 12 est;Norbert GONZALES et    Salvatore ALTERIO;AG IMMO 12;01 40 01 00 03;paris12est@guyhoquet.com;P;HOQUET217;Siège;1748
14/04/2015;75013;PARIS 13 GOBELINS;Fabrice DAKHLI;TGA LES GOBELINS;01 44 08 61 21;paris13gobelins@guyhoquet.com  ;P;HOQUET1210;Siège;1988
;75013;PARIS 13 Ouest;Yves BENIGERI;AABEI;01.43.13.33.00;paris13@guyhoquet.com;P;HOQUET124;Siège;1950
08/09/2015;75014;PARIS 14;Philippe LHERMITTE;L’AGENCE PARIS ALESIA;01 43 35 20 20;paris14alesia@guyhoquet.com ;P;HOQUET1221;Siège;2063
26/09/2016;75014;Paris 14 Plaisance;Eric BERNARD;BERNARD-KOENIG IMMOBILIER;01 81 69 77 20;paris14plaisance@guyhoquet.com;P;HOQUET1264;Siège;2124
;75015;PARIS 15 Est;Francis HERLY;AMH IMMOBILIER;01 53 58 58 88;paris15vaugirard@guyhoquet.com;P;HOQUET16;Siège;2046
21/10/2016;75015;PARIS 15 Saint Charles ;Bertrand DALIN ;DBD IMMOBILIER ;01 82 83 40 00;paris15ouest@guyhoquet.com ;P;HOQUET1271;Siège;
;75015;PARIS 15 SUD;Serge BUSSAT;BUSSAT DUNNE IMMOBILIER;01 45 32 40 40;paris15sud@guyhoquet.com;P;HOQUET1157;Siège;1916
14/04/2015;75116;PARIS 16 MUETTE;Bertrand PALLATIN;IMMOBILIERE PALLATIN;01 42 24 06 06;paris16muette@guyhoquet.com  ;P;HOQUET1209;Siège;1969
;75018;PARIS 18 est;José ALONSO;CUSTINE IMMOBILIER;01 53 09 92 00;paris18est@guyhoquet.com;P;HOQUET75;Siège;2045
;75018;PARIS 18 ouest;Frédéric TEBOUL et Lionel BISMUTH;CABINET FREDELION;01 53 09 26 27;paris18ouest@guyhoquet.com;P;HOQUET649;Siège;1779
26/01/2015;75019;PARIS 19 Sud;Kamal FERRADJI;KF IMMOBILIER;01.73.73.00.50;paris19sud@guyhoquet.com ;P;HOQUET1199;Siège;2022
;75020;PARIS 20 nord;Eric SLAKMON;GARNIER SARL;01 40 33 30 00;paris20nord@guyhoquet.com;P;HOQUET379;Siège;1761
;75020;PARIS 20 sud;Jérôme COMBES;JEROME COMBES IMMOBILIER;01 44 64 01 00;paris20sud@guyhoquet.com;P;HOQUET1107;Siège;1783
18/09/2014;75015;PARIS 7 et 15;Joseph HAZAN;IJH CONSEILS;01 53 95 00 22;paris15dupleix@guyhoquet.com ;P;HOQUET1184;Siège;1991
05/09/2016;75009;PARIS 9 ouest ;Fabian FAURE ;S2F IMMOBILIER;01 81 69 76 69;paris9ouest@guyhoquet.com  ;P;HOQUET1263;Siège;2121
;64000;PAU;Laurent OTERO;IMMOPLUS;05.59.98.40.83;pau@guyhoquet.com;P;HOQUET80;Siège;2086
;93320;PAVILLONS SOUS BOIS;Slobodan KESIC et Julien LACROIX;SJ IMMO;01 48 48 08 28;pavillonssousbois@guyhoquet.com;P;HOQUET789;Siège;1800
;76570;PAVILLY;Annick JOLY;AJIMMO;02 32 80 26 26;pavilly@guyhoquet.com;P;HOQUET710;Siège;1683
23/02/2016;50190;PERIERS;Stéphanie LEMOIGNE ;JISIMMO;02 33 47 50 12;periers@guyhoquet.com;P;HOQUET1243;Siège;2078
;80200;PERONNE;Fanny GHESQUIER;EURL F. GHESQUIER;03 22 85 17 99;f.ghesquier@guyhoquet.com;P;HOQUET777;Siège;1770
;66000;PERPIGNAN ;Nathalie et Jean AUBERT;EYES WIDE SHUT;04 68 28 00 44;cabinetperpignan@guyhoquet.com;P;GHEC007;GHEC;2027
19/01/2016;66000;PERPIGNAN CENTRE;"Mme Marcelina STARK et Mme Angélique BATLLE ";ANGELIS CONCEPT et CONSEIL FINANCIER;06  30 11 24 12;perpignan@guyhoquet.com;P;HOQUET1237;Siège;2092
;66001;PERPIGNAN SUD;Christian BELLIERES;B2 IMMO;04 68 53 94 14;perpignansud@guyhoquet.com;P;HOQUET1082;Siège;1662
;33600;PESSAC;Gildas KERBART;I 3 M;05.56.15.33.00;pessac@guyhoquet.com;P;HOQUET11;Siège;1835
;22650;PLOUBALAY;Alain DAUGAN;DAUGAN IMMOBILIER;02 96 27 23 95 ;ploubalay@guyhoquet.com;P;HOQUET488;Siège;1711
;27500;PONT AUDEMER;Benoit LE BAS;IMMOBILIERE DE NORMANDIE;02.32.41.79.62;pontaudemer@guyhoquet.com;P;HOQUET352;Siège;1865
;77340;PONTAULT COMBAULT;Valérie RONDEPIERRE;VALERIMMO;01.60.28.04.40;pontault@guyhoquet.com;P;HOQUET305;Siège;1959
;38530;PONTCHARRA;Patrick MAMICHEL;CPMA IMMOBILIER;04 76 08 22 09;pontcharra@guyhoquet.com;P;HOQUET670;Siège;1654
;95300;PONTOISE;Alain DESSEROY;DESSIMMO;01.30.30.70.90;pontoise@guyhoquet.com;P;HOQUET141;Siège;40
;44210;PORNIC;Françoise BESSONNET;EASYMMO;02 51 74 57 30;pornic@guyhoquet.com;P;HOQUET400;Siège;1789
;77160;PROVINS;Marylin MOREAU;VICTOIRE IMMOBILIER;01 60 58 00 01;provins@guyhoquet.com;P;HOQUET820;Siège;1775
;92800;PUTEAUX;Stéphane HULOT;SOLIMMO;01.41.38.33.83;puteaux@guyhoquet.com;P;HOQUET42;Siège;1990
;56230;QUESTEMBERT;Anne LANCELOT;SERVICE IMMOBILIER DE L'ARGOET;02 97 49 02 90;questembert@guyhoquet.com;Succ.;HOQUET358 S;Pas de code unique;1801
;78120;RAMBOUILLET;Boris DUMONT;DUMONT IMMOBILIER;01 30 88 60 00;rambouillet@guyhoquet.com;P;HOQUET1077;Siège;2085
03/07/2014;31520;RAMONVILLE SAINT-AGNE;Philippe SZWARC et Dominique SZWARC;GARDENIA IMMOBILIER;05 61 33 03 30;ramonville@guyhoquet.com ;P;HOQUET1179;Siège;1937
;51100;REIMS;Eric REDOUTE;TIMOTIMO;03.26.09.83.83;reimscentre@guyhoquet.com;P;HOQUET65;Siège;1498
;51100;REIMS NORD;Jean Yves PERSON;6ème AVENUE;03 26 49 12 12;reimsnord@guyhoquet.com;P;HOQUET533;Siège;1499
;61110;REMALARD;Arnaud MORTIER;ARNAUD MORTIER IMMOBILIER;02 33 73 04 81;remalard@guyhoquet.com;P;HOQUET426;Siège;1457
;31250;REVEL;Isabelle AZAM ;PASTEL IMMO;05 31 61 55 90;revel@guyhoquet.com ;P;HOQUET1163;Siège;1923
;12000;RODEZ;Grégory GIORDAN;COGIM;05 65 68 15 38;rodez@guyhoquet.com;P;HOQUET1111;Siège;1767
01/12/2016;77680;ROISSY EN BRIE;Valérie RONDEPIERRE;VALERIMMO;01 82 33 02 60;ylac.immogest@guyhoquet-gestion.com  ;Succ.;HOQUET847;Siège;1959
;77680;ROISSY EN BRIE;Valérie RONDEPIERRE;VALERIMMO;01 60 29 00 29;roissyenbrie@guyhoquet.com;Succ.;HOQUET847;Siège;1959
;93110;ROSNY SOUS BOIS;William et Gaëlle FRANCK;WG IMMO;01 48 55 70 47;rosnysousbois@guyhoquet.com;P;HOQUET517;Siège;2154
;17200;ROYAN;Sébastien DUVAL;DL IMMO;05 46 22 17 87;royan@guyhoquet.com;P;HOQUET60;Siège;1657
;92500;RUEIL MALMAISON;Stéphane HULOT et Efflam LE LOREC;CRISTALIMMO;01.55.47.11.22;rueil@guyhoquet.com;P;HOQUET888;Siège;2102
22/12/2014;27250;RUGLES;Céline GUITTON;VIKING IMMOBILIER NORMANDIE;06 78 34 74 34;verneuilsuravre@guyhoquet.com  ;Succ.;HOQUET1195;Siège;2041
;72300;SABLE SUR SARTHE;Chantal DE LA COUR et Sandrine BRECHETEAU ;CHANTOLIVE;02.43.95.91.41;sable@guyhoquet.com;P;HOQUET86;Siège;2140
;33240;SAINT ANDRE DE CUBZAC;Olivier HAIE;AQUIFARE;05 57 64 97 07;o.haie@guyhoquet.com;P;HOQUET1040;Siège;2050
;57500;SAINT AVOLD;Alain MULLER;ACI IMMO;03.87.00.19.03;saintavold@guyhoquet.com;P;HOQUET108;Siège;1790
;69720;SAINT BONNET DE MURE;Pascal BAYLE;BAYLIMMO;04 78 40 99 99;stbonnetdemure@guyhoquet.com;P;HOQUET450;Siège;2016
;22000;SAINT BRIEUC;Sylvain CRESTEAUX;LE GUIDE IMMOBILIER;02 96 33 22 22;saintbrieuc@guyhoquet.com;P;HOQUET440;Siège;1979
;37540;SAINT CYR S/LOIRE;Tristan BARBIER et Pascal HIRBEC;CEVALIMMO;02.47.85.55.77;saintcyr@guyhoquet.com;P;HOQUET48;Siège;1994
;93200;SAINT DENIS;Yacine BELKACIMI et Servet AYAN ;LE GRAND PARIS IMMO;01 42 43 09 74;saintdenis@guyhoquet.com;P;HOQUET339;Siège;1520
;93200;SAINT DENIS 2 ;Yacine BELKACIMI et Servet AYAN ;LE GRAND PARIS IMMO;01 48 41 17 03;saintdenis@guyhoquet.com;Succ.;HOQUET339 S;Pas de code unique;1520
;69650;SAINT GERMAIN AU MONT D'OR;Pascal PAYSANT;3MP IMMOBILIER;04 37 92 07 01;;Succ.;HOQUET366 S;Pas de code unique;1928
;85270;SAINT HILAIRE DE RIEZ;Hervé BESSONNET;ABH IMMOBILIER;02 51 55 19 11;sthilaire85@guyhoquet.com;P;HOQUET403;Siège;1918
;97320;SAINT LAURENT DU MARONI;Tony MIRANDE;VTLP;05 94 34 19 19 ;stlaurentdumaroni@guyhoquet.com;P;HOQUET655;Siège;918
;38400;SAINT MARTIN D'HERES;Nicolas NAZARETIAN;L'IMMOBILI'HERES;04 76 89 24 29;saintmartindheres@guyhoquet.com;P;HOQUET1093;Siège;1644
;94100;SAINT MAUR DES FOSSES;Christian et Eloïse MARQUES;MCI;01 55 97 55 55;saintmaur@guyhoquet.com;P;HOQUET1115;Siège;1821
;54130;SAINT MAX;Aline et Bruno VASSEUR ;AMB IMMO;03 83 21 41 52;stmax@guyhoquet.com;P;HOQUET802;Siège;1843
;33160;SAINT MEDARD EN JALLES;Sophie PITHON;Aux toits des jalles;05 56 35 31 63;saintmedardenjalles@guyhoquet.com;P;HOQUET1141;Siège;1840
;44600;SAINT NAZAIRE;Sylvie et Antoine LESTURGIE;www.ot-vignobledefronton.sitew.com;02.51.10.06.25;saintnazaire@guyhoquet.com;P;HOQUET110;Siège;1710
;93400;SAINT OUEN;Serge CASAREALES et Richard BOUGRELLE et M REYNAUD;BCR ASSET MANAGEMENT;01 49 48 48 48;saintouen@guyhoquet.com;P;HOQUET361;Siège;1855
07/10/2016;40990;SAINT PAUL LES DAX;Sabine COLIN;IMMAGENCY;05 58 91 58 58 ;stpaullesdax@guyhoquet.com;P;HOQUET1267;Siège;2207
;7130;SAINT PERAY;Michel COURBIS;SANDIE IMMOBILIER;04 75 81 00 02;saintperay@guyhoquet.com;Succ.;HOQUET704;Siège;2017
14/04/2015;22410;SAINT QUAY PORTRIEUX;Gilles L'HUAIRE;J2C IMMOBILIER;02.96.65.20.20;saintquay@guyhoquet.com;P;HOQUET1208;Siège;1867
;38460;SAINT ROMAIN DE JALIONAS;Jean Christophe ROCHER;LA BOURBRE IMMOBILIER;04 74 90 30 30;saintromain@guyhoquet.com;P;HOQUET1031;Siège;2076
;83990;SAINT TROPEZ;Patrick BANCQUART;TALENT REAL ESTATE;04 94 79 62 84;sainttropez@guyhoquet.com;P;HOQUET818;Siège;1889
;25410;SAINT VIT;Pascal NIOCHET;EODIS IMMOBILIER;03 81 80 14 89;saintvit@guyhoquet.com;P;HOQUET867;Siège;1901
;78210;SAINT-CYR-L'ECOLE;Pierre LEGRAND ;CPL IMMO;01 76 52 01 40;saintcyrlecole@guyhoquet.com ;P;HOQUET1165;Siège;1892
04/12/2015;13300;SALON DE PROVENCE;MARTINI Jean-Claude et GUILLIER Louis              ;ALEXIMMO;04 90 56 30 94;salondeprovence@guyhoquet.com;P;HOQUET1229;Siège;2093
;78500;SARTROUVILLE;Cyril GENETTE;CDG SERVICES IMMOBILIERS;01 39 13 11 42;sartrouville@guyhoquet.com;P;HOQUET825;Siège;1799
;49400;SAUMUR;Jean-Marc SEGUY;AGENCE ST PIERRE;02.41.83.12.60;saumur@guyhoquet.com;P;HOQUET344;Siège;1887
;77176;SAVIGNY LE TEMPLE;Jean Philippe LISSANDRES;VILA 2;01 64 37 80 00;savignyletemple@guyhoquet.com;Succ.;HOQUET1140;Siège;1934
;91600;SAVIGNY SUR ORGE;Omar AMAAR;SAVIGNY IMMOBILIER;01 60 46 14 14;savignysurorge@guyhoquet.com;P;HOQUET784;Siège;1828
;67600;SELESTAT;Alain ANCELLE;AMV IMMO;03 90 57 29 09;selestat@guyhoquet.com;P;HOQUET609;Siège;1681
;13240;SEPTEMES LES VALLONS;Didier LAMBOUR;THOMVAL;04.95.06.41.20;septemes@guyhoquet.com;P;HOQUET325;Siège;1842
;69360;SEREZIN DU RHONE ;Magalie CARBONNE HERNANDEZ et Florent RICHARD;ABBC INVESTISSEMENT;04 78 02 32 50;serezindurhone@guyhoquet.com ;P;HOQUET582;Siège;1640
22/07/2016;93270;SEVRAN;Bertrand ABRAHAM;AB IMMO;01 41 52 21 10;sevran@guyhoquet.com ;P;HOQUET1258;Siège;
;92310;SEVRES;Jacques SISLIAN;SISIMMO;01.55.64.05.05;sevres@guyhoquet.com;P;HOQUET64;Siège;1759
;51120;SEZANNE;Paula VAUTRELLE;ADC IMMO;03 26 42 07 00;sezanne@guyhoquet.com;P;HOQUET840;Siège;1861
01/08/2015;2200;SOISSONS;Julien WOZNIAK;IMMO CONSEILS SOISSONS;03 23 76 24 41;soissons@guyhoquet.com;P;HOQUET1217;Siège;2052
;95230;SOISY SOUS MONTMORENCY;Marc VITEL;TRANSAC IMMO;01.30.10.80.08;soisy@guyhoquet.com;P;HOQUET52;Siège;2074
;91450;SOISY SUR SEINE;Didier BACON;DIB IMMO ;01 60 79 60 22;soisysurseine@guyhoquet.com  ;P;HOQUET1094;Siège;1735
;59490;SOMAIN;Jean-Christophe DOCHEZ;JCD IMMOBILIER;03 27 86 08 60;somain@guyhoquet.com;P;HOQUET769;Siège;1797
;69510;SOUCIEU EN JARREST;Daniel MERLE;IMMODM;04 78 42 02 86;soucieu@guyhoquet.com;P;HOQUET1112;Siège;1820
;40140;SOUSTONS;Marc DARGELAS;BELLEGARDE IMMO;05 58 41 03 33;soustons@guyhoquet.com;P;HOQUET1025;Siège;2051
;74160;ST JULIEN EN GENEVOIS;Nadége DOUBLET;A.P.I;04 50 74 70 00;saintjulienengenevois@guyhoquet.com;Succ.;HOQUET663 S;Pas de code unique;1714
;92150;SURESNES;Stéphane HULOT et Efflam LE LOREC;H2IMMO;01 41 38 00 00;suresnes@guyhoquet.com;P;HOQUET616;Siège;1707
;17700;SURGERES;Romain ROUILLIER;ROMDOM IMMOBILIER;05 46 27 27 37;surgeres@guyhoquet.com;P;HOQUET1096;Siège;1757
;33400;TALENCE;Philippe HOSPITAL;MDP IMMOBILIER;05 47 74 56 00;talence@guyhoquet.com;P;HOQUET864;Siège;1919
;13150;TARASCON;Marie-José CAMBON;ACT'IM;04.90.43.59.73;tarascon@guyhoquet.com;P;HOQUET308;Siège;1841
;69160;TASSIN-LA-DEMI-LUNE;Jérôme et Clotilde CHEVROU;SO OUEST IMMO;04 72 19 61 61 ;tassin@guyhoquet.com ;P;HOQUET1123;Siège;1807
;94320;THIAIS;Olivier GUERINEAU;TECTUM;01 48 84 36 10;thiais@guyhoquet.com;P;HOQUET1187;Siège;1977
;51430;TINQUEUX;Vincent PERRIN et Eric REDOUTE;6ème AVENUE;03 26 468 468;reimstinqueux@guyhoquet.com;Succ.;HOQUET806;Siège;1499
;31500;TOULOUSE  COTE PAVEE;Eric OBERDORFF;BIEN A TOIT;05 62 16 07 68;toulousecotepavee@guyhoquet.com;P;HOQUET387;Siège;1951
;31200;TOULOUSE MINIMES;Gilles PERROTTET;ISATIS IMMOBILIER;05 61 62 85 85;toulouse-minimes@guyhoquet.com;P;HOQUET553;Siège;2079
;31400;TOULOUSE SAINT MICHEL;Jérôme SARZI ;AJ IMMOBILIER;05 61 52 19 07;toulouse-saintmichel@guyhoquet.com;P;HOQUET1022;Siège;2090
;31300;TOULOUSE ST CYPRIEN;Patrice DE NARDI;Patrice DE NARDI IMMOBILIER;05 61 50 26 26;toulousestcyprien@guyhoquet.com;P;HOQUET522;Siège;2018
;59200;TOURCOING;Irène LEURENT;LEURENT IMMOBILIER;03 20 28 93 60;tourcoingsud@guyhoquet.com;P;HOQUET678;Siège;1699
;77220;TOURNAN EN BRIE;Madani KOITA;KORIMMO;01 64 51 11 51;tournan@guyhoquet.com;Succ.;HOQUET1092;Siège;2155
;31170;TOURNEFEUILLE;Henri SARRANS;H2OC;05 62 48 63 30;tournefeuille@guyhoquet.com;P;HOQUET480;Siège;1997
;37000;TOURS;Patrice et Gisèle PICHAVANT;PICHAVANT SARL;02 47 35 94 30;toursleshalles@guyhoquet.com;P;HOQUET753;Siège;1833
;1600;TREVOUX;Pascal PAYSANT;3MP IMMOBILIER;04 74 00 25 25;;Succ.;HOQUET366 S;Pas de code unique;1928
;26000;VALENCE;Michel COURBIS;SANDIE IMMOBILIER ;04 75 81 75 35;valence@guyhoquet.com;P;HOQUET474;Siège;2017
;26000;VALENCE SUD;Patrick BEAUFORT ;ABCP IMMOBILIIER;04 75 43 87 05;valencesud@guyhoquet.com;P;HOQUET545;Siège;2064
;6220;VALLAURIS;Pascale PERUCCIO ;SARL NOUVEL IMMOBILIER;04 93 67 22 25;vallauris@guyhoquet.com;P;HOQUET1026;Siège;2100
;74520;VALLEIRY;Nadège DOUBLET;A.P.I;04 50 74 70 00;valleiry@guyhoquet.com;P;HOQUET663;Siège;1714
;92170;VANVES;Hervé POINSON et Michel MENDES;M.P.V EURL;01.55.95.81.81;vanves@guyhoquet.com;P;HOQUET877;Siège;2008
15/07/2014;77000;VAUX-LE-PENIL;Christophe HAPPART;HAPPART IMMOBILIER;01 60 59 22 24;vauxlepenil@guyhoquet.com;Succ.;HOQUET332 S;Pas de code unique;1577
;78140;VELIZY;Pierre HEBERT ;VELIZYMO;01 73 95 02 00;velizy@guyhoquet.com;Succ.;HOQUET1171;Siège;1844
;41100;VENDOME;Sylvianne LARQUE;SYLAN;02.54.72.21.23;vendome@guyhoquet.com;P;HOQUET853;Siège;1941
;27130;VERNEUIL SUR AVRE;Philippe GUITTON;L'EURE DE L'IMMOBILIER;02 32 38 23 20;verneuilsuravre@guyhoquet.com;P;HOQUET472;Siège;2041
;78000;VERSAILLES;Catherine GONDARD LEJEUNE;CG IMMO;01.30.97.60.00;versaillesrivedroite@guyhoquet.com;P;HOQUET269;Siège;1823
;78000;VERSAILLES EST;Jean-Luc LENTESI;TAMARIS;09 84 22 80 29;versaillesest@guyhoquet.com;P;HOQUET1164;Siège;1818
09/03/2016;38200;VIENNE;Axel CHAPUIS;IMMOPLUSCONSEILS;04 74 87 73 76;vienne@guyhoquet.com;P;HOQUET1244;Siège;2144
21/04/2015;40480;VIEUX BOUCAU;Marc DARGELAS;BELLEGARDE IMMO;05 58 58 03 03;vieuboucau@guyhoquet.com  ;Succ.;HOQUET1212;Siège;2051
;91270;VIGNEUX-SUR-SEINE;Sailendra RAMSAMY;ART CONSEIL IMMOBILIER;01 69 05 13 13;vigneuxsurseine@guyhoquet.com;P;HOQUET451 P;Pas de code unique;1836
;38190;VILLARD-BONNOT;Stéphanie MUGGEO et Nicolas NAZARETIAN;VBI IMMOBILIER;04 76 40 01 01;villardbonnot@guyhoquet.com;P;HOQUET758;Siège;2131
20/04/2016;94800  ;VILLEJUIF;Charlotte BOISSEAU et Vincent ARKI ;VCI IMMOBILIER;01 82 39 15 50; villejuif@guyhoquet.com ;P;HOQUET1252;Siège;2094
;33140;VILLENAVE D'ORNON;Yves POUGET;AMI;05.57.35.67.00;y.pouget@guyhoquet.com;P;HOQUET209;Siège;1805
;30400;VILLENEUVE LES AVIGNON;Sébastien PETIT et Laurent MOTTET;SEL IMMO;04.90.15.46.01;villesavignon@guyhoquet.com;P;HOQUET998;Siège;2006
;77270;VILLEPARISIS;Denis DUSSART;ACCORD IMMO ;01.60.21.49.05;villeparisis@guyhoquet.com;Succ.;HOQUET1042;Siège;1847
;69100;VILLEURBANNE;Pascale BARON;ATRIMMO;04 37 57 10 10;villeurbanne@guyhoquet.com;P;HOQUET444;Siège;1719
12/11/2014;94350;VILLIERS SUR MARNE;Carole NIDDAM;J2M IMMO;01 49 41 25 41;villiers@guyhoquet.com;P;HOQUET1191;Siège;1976
;14500;VIRE;Christelle BLANC et William THIEBOT;NORMANDIMMO;02 31 69 45 59;vire@guyhoquet.com;P;HOQUET798;Siège;1819
;33720;VIRELADE;Denis MAY;ACG IMMOBILIER;05.56.27.40.91;virelade@guyhoquet.com;P;HOQUET370;Siège;1929
;78220;VIROFLAY;Jean-Baptiste HEBERT et Patrick LEPLEUX;PATRIMO 78;01 30 24 00 50;viroflay@guyhoquet.com;P;HOQUET635;Siège;1844
;91170;VIRY CHATILLON;Philippe MESQUITA;PARC IMMO;01 60 48 74 21;virychatillon@guyhoquet.com;P;HOQUET1100;Siège;1731
;51300;VITRY LE FRANCOIS;Patrice Berweiller;SAS PB IMMOBILIER;03 26 62 24 24;vitrylefrancois@guyhoquet.com;P;HOQUET1154;Siège;1932
;94400;VITRY SUR SEINE;William KOURORIEZ et Hafida  BENCHERNINE;HDI;01.55.53.17.17;vitry@guyhoquet.com;P;HOQUET224;Siège;1940
24/02/2015;69390;VOURLES;Miguel VELOSO;RHONE SUD IMMOBILIER;04 72 31 05 93;vourles@guyhoquet.com;P;HOQUET1203;Siège;2013
;91330;YERRES;Anne France COUQUE;A2FC IMMOBILIER;01.69.49.64.79;yerres@guyhoquet.com;P;HOQUET324;Siège;1817
